NORAD_CAT_ID,OBJECT_NAME,OBJECT_TYPE,EPOCH,MEAN_MOTION,ECCENTRICITY,INCLINATION,RA_OF_ASC_NODE,ARG_OF_PERICENTER,MEAN_ANOMALY,BSTAR,MEAN_MOTION_DOT,MEAN_MOTION_DDOT,TLE_LINE0,TLE_LINE1,TLE_LINE2,SEMIMAJOR_AXIS,PERIOD,APOGEE,PERIGEE,DECAYED
55915.0,STARLINK-5859,PAYLOAD,2023-06-05 14:00:01,14.98349408,0.0003023,70.0011,326.3,268.8673,7.435,-0.0025996,-0.0003099,0.0,0 STARLINK-5859,1 55915U 23037B   23156.58335648 -.00030990  00000-0 -25996-2 0  9995,2 55915  70.0011 326.3000 0003023 268.8673   7.4350 14.98349408 12820,6950.133,96.106,574.099,569.897,0.0
55915.0,STARLINK-5859,PAYLOAD,2023-06-06 00:00:00,14.98337126,0.0003091,70.0007,325.2492,274.5717,88.5282,-0.001119,-0.00013422,0.0,0 STARLINK-5859,1 55915U 23037B   23157.00001157 -.00013422  00000-0 -11190-2 0  9990,2 55915  70.0007 325.2492 0003091 274.5717  88.5282 14.98337126  1305,6950.171,96.107,574.184,569.888,0.0
55915.0,STARLINK-5859,PAYLOAD,2023-06-06 11:12:08,14.98332144,0.0002895,69.9993,324.0747,270.1622,89.9206,-2.0571e-05,-3.38e-06,0.0,0 STARLINK-5859,1 55915U 23037B   23157.46677000 -.00000338  00000-0 -20571-4 0  9993,2 55915  69.9993 324.0747 0002895 270.1622  89.9206 14.98332144 13303,6950.186,96.107,574.063,570.039,0.0
55915.0,STARLINK-5859,PAYLOAD,2023-06-06 16:00:32,14.98347797,0.0002814,69.9991,323.5679,272.3907,87.693,-0.000255,-3.136e-05,0.0,0 STARLINK-5859,1 55915U 23037B   23157.66704475 -.00003136  00000-0 -25500-3 0  9997,2 55915  69.9991 323.5679 0002814 272.3907  87.6930 14.98347797 12982,6950.138,96.106,573.959,570.047,0.0
55915.0,STARLINK-5859,PAYLOAD,2023-06-06 19:12:48,14.98335396,0.0002921,69.9992,323.2312,270.2245,89.8579,8.2585e-07,-8.3e-07,0.0,0 STARLINK-5859,1 55915U 23037B   23157.80056641 -.00000083  00000-0  82585-6 0  9994,2 55915  69.9992 323.2312 0002921 270.2245  89.8579 14.98335396 13352,6950.176,96.107,574.071,570.011,0.0
55915.0,STARLINK-5859,PAYLOAD,2023-06-07 11:14:10,14.98324643,0.0002964,69.9992,321.5487,271.4044,88.6776,2.3e-05,1.81e-06,0.0,0 STARLINK-5859,1 55915U 23037B   23158.46817175  .00000181  00000-0  23000-4 0  9997,2 55915  69.9992 321.5487 0002964 271.4044  88.6776 14.98324643 13105,6950.209,96.107,574.134,570.014,0.0
55915.0,STARLINK-5859,PAYLOAD,2023-06-07 20:50:58,14.98328385,0.0002921,69.9994,320.5382,270.6011,89.4814,9.5053e-06,2e-07,0.0,0 STARLINK-5859,1 55915U 23037B   23158.86873036  .00000020  00000-0  95053-5 0  9999,2 55915  69.9994 320.5382 0002921 270.6011  89.4814 14.98328385 13512,6950.198,96.107,574.093,570.033,0.0
55915.0,STARLINK-5859,PAYLOAD,2023-06-08 09:40:02,14.98332593,0.0002888,69.9997,319.1915,270.83,89.2528,-1.634e-05,-2.88e-06,0.0,0 STARLINK-5859,1 55915U 23037B   23159.40280848 -.00000288  00000-0 -16340-4 0  9992,2 55915  69.9997 319.1915 0002888 270.8300  89.2528 14.98332593 13242,6950.185,96.107,574.057,570.043,0.0
55915.0,STARLINK-5859,PAYLOAD,2023-06-08 12:52:19,14.98329043,0.0002945,69.9996,318.8549,270.7151,89.3671,-4.5885e-05,-6.4e-06,0.0,0 STARLINK-5859,1 55915U 23037B   23159.53633117 -.00000640  00000-0 -45885-4 0  9995,2 55915  69.9996 318.8549 0002945 270.7151  89.3671 14.98329043 13614,6950.196,96.107,574.108,570.014,0.0
55915.0,STARLINK-5859,PAYLOAD,2023-06-09 09:42:03,14.98327464,0.0003071,69.9996,316.667,268.602,91.4787,1.1065e-05,3.9e-07,0.0,0 STARLINK-5859,1 55915U 23037B   23160.40420922  .00000039  00000-0  11065-4 0  9994,2 55915  69.9996 316.6670 0003071 268.6020  91.4787 14.98327464 13399,6950.201,96.107,574.2,569.931,0.0
55915.0,STARLINK-5859,PAYLOAD,2023-06-09 16:06:35,14.98327644,0.0003073,69.9996,315.9936,268.523,91.5577,1.2226e-05,5.3e-07,0.0,0 STARLINK-5859,1 55915U 23037B   23160.67124929  .00000053  00000-0  12226-4 0  9997,2 55915  69.9996 315.9936 0003073 268.5230  91.5577 14.98327644 13781,6950.2,96.107,574.201,569.929,0.0
55915.0,STARLINK-5859,PAYLOAD,2023-06-10 03:19:31,14.98335378,0.0003069,69.9996,314.8154,268.1948,91.8859,4.9471e-05,4.97e-06,0.0,0 STARLINK-5859,1 55915U 23037B   23161.13856222  .00000497  00000-0  49471-4 0  9991,2 55915  69.9996 314.8154 0003069 268.1948  91.8859 14.98335378 13507,6950.176,96.107,574.174,569.908,0.0
55915.0,STARLINK-5859,PAYLOAD,2023-06-10 09:44:04,14.98334246,0.0003078,69.9996,314.142,268.781,91.2996,4.2786e-05,4.18e-06,0.0,0 STARLINK-5859,1 55915U 23037B   23161.40560233  .00000418  00000-0  42786-4 0  9990,2 55915  69.9996 314.1420 0003078 268.7810  91.2996 14.98334246 13891,6950.18,96.107,574.184,569.905,0.0
55915.0,STARLINK-5859,PAYLOAD,2023-06-10 14:32:28,14.98333875,0.0003069,69.9996,313.637,269.276,90.8047,3.8164e-05,3.62e-06,0.0,0 STARLINK-5859,1 55915U 23037B   23161.60588219  .00000362  00000-0  38164-4 0  9999,2 55915  69.9996 313.6370 0003069 269.2760  90.8047 14.98333875 13922,6950.181,96.107,574.179,569.913,0.0
55915.0,STARLINK-5859,PAYLOAD,2023-06-11 03:21:32,14.9833198,0.0002914,69.9999,312.2905,269.7693,90.3132,1.5466e-07,-9.1e-07,0.0,0 STARLINK-5859,1 55915U 23037B   23162.13996265 -.00000091  00000-0  15466-6 0  9994,2 55915  69.9999 312.2905 0002914 269.7693  90.3132 14.98331980 13657,6950.187,96.107,574.077,570.026,0.0
55915.0,STARLINK-5859,PAYLOAD,2023-06-11 16:10:37,14.98325571,0.0002861,70.0,310.944,270.0932,89.99,-5.5781e-05,-7.58e-06,0.0,0 STARLINK-5859,1 55915U 23037B   23162.67404838 -.00000758  00000-0 -55781-4 0  9996,2 55915  70.0000 310.9440 0002861 270.0932  89.9900 14.98325571 13739,6950.207,96.107,574.06,570.083,0.0
55915.0,STARLINK-5859,PAYLOAD,2023-06-12 03:23:34,14.9832792,0.0002963,69.9996,309.7652,270.2549,89.8271,-8.5864e-05,-1.117e-05,0.0,0 STARLINK-5859,1 55915U 23037B   23163.14136812 -.00001117  00000-0 -85864-4 0  9998,2 55915  69.9996 309.7652 0002963 270.2549  89.8271 14.98327920 14157,6950.199,96.107,574.124,570.005,0.0
55915.0,STARLINK-5859,PAYLOAD,2023-06-12 16:12:38,14.98333061,0.0003057,69.9993,308.4181,269.6103,90.4706,-4.7034e-05,-6.54e-06,0.0,0 STARLINK-5859,1 55915U 23037B   23163.67544314 -.00000654  00000-0 -47034-4 0  9998,2 55915  69.9993 308.4181 0003057 269.6103  90.4706 14.98333061 13883,6950.183,96.107,574.173,569.924,0.0
55915.0,STARLINK-5859,PAYLOAD,2023-06-13 09:50:07,14.98323485,0.0003114,69.9993,306.5664,269.4181,90.6621,4.679e-05,4.65e-06,0.0,0 STARLINK-5859,1 55915U 23037B   23164.40980663  .00000465  00000-0  46790-4 0  9997,2 55915  69.9993 306.5664 0003114 269.4181  90.6621 14.98323485 13995,6950.213,96.107,574.242,569.914,0.0
55915.0,STARLINK-5859,PAYLOAD,2023-06-13 19:26:55,14.98329075,0.0003151,69.9995,305.5567,269.7498,90.33,5.3168e-05,5.41e-06,0.0,0 STARLINK-5859,1 55915U 23037B   23164.81036405  .00000541  00000-0  53168-4 0  9990,2 55915  69.9995 305.5567 0003151 269.7498  90.3300 14.98329075 14402,6950.196,96.107,574.251,569.871,0.0
55915.0,STARLINK-5859,PAYLOAD,2023-06-14 16:16:40,14.98328134,0.0002866,69.9994,303.3682,261.4241,98.6593,2.3399e-05,1.86e-06,0.0,0 STARLINK-5859,1 55915U 23037B   23165.67824584  .00000186  00000-0  23399-4 0  9996,2 55915  69.9994 303.3682 0002866 261.4241  98.6593 14.98328134 14187,6950.199,96.107,574.056,570.072,0.0
55915.0,STARLINK-5859,PAYLOAD,2023-06-14 19:28:56,14.98329507,0.0002925,69.9992,303.0315,261.592,98.4908,3.3477e-05,3.06e-06,0.0,0 STARLINK-5859,1 55915U 23037B   23165.81176454  .00000306  00000-0  33477-4 0  9990,2 55915  69.9992 303.0315 0002925 261.5920  98.4908 14.98329507 14550,6950.194,96.107,574.092,570.026,0.0
55915.0,STARLINK-5859,PAYLOAD,2023-06-15 13:06:25,14.98329178,0.0003183,69.9992,301.1801,268.9119,91.1676,2.4333e-05,1.97e-06,0.0,0 STARLINK-5859,1 55915U 23037B   23166.54612482  .00000197  00000-0  24333-4 0  9996,2 55915  69.9992 301.1801 0003183 268.9119  91.1676 14.98329178 14665,6950.195,96.107,574.273,569.848,0.0
55915.0,STARLINK-5859,PAYLOAD,2023-06-15 17:54:49,14.98334344,0.0003236,69.9992,300.675,270.1073,89.9715,4.8191e-05,4.82e-06,0.0,0 STARLINK-5859,1 55915U 23037B   23166.74640071  .00000482  00000-0  48191-4 0  9998,2 55915  69.9992 300.6750 0003236 270.1073  89.9715 14.98334344 14340,6950.179,96.107,574.294,569.795,0.0
55915.0,STARLINK-5859,PAYLOAD,2023-06-16 11:32:17,14.983342,0.0003291,69.9996,298.8227,273.5027,86.5756,4.2182e-08,-9.3e-07,0.0,0 STARLINK-5859,1 55915U 23037B   23167.48076079 -.00000093  00000-0  42182-7 0  9997,2 55915  69.9996 298.8227 0003291 273.5027  86.5756 14.98334200 14808,6950.18,96.107,574.332,569.758,0.0
55915.0,STARLINK-5859,PAYLOAD,2023-06-16 17:56:49,14.98320051,0.0003277,69.9992,298.15,269.0771,91.0012,0.00042898,5.028e-05,0.0,0 STARLINK-5859,1 55915U 23037B   23167.74779502  .00005028  00000-0  42898-3 0  9999,2 55915  69.9992 298.1500 0003277 269.0771  91.0012 14.98320051 14840,6950.224,96.108,574.366,569.811,0.0
55915.0,STARLINK-5859,PAYLOAD,2023-06-17 01:57:30,14.98333814,0.0003323,69.9989,297.3079,271.0652,89.0127,-9.765e-06,-2.1e-06,0.0,0 STARLINK-5859,1 55915U 23037B   23168.08159835 -.00000210  00000-0 -97650-5 0  9996,2 55915  69.9989 297.3079 0003323 271.0652  89.0127 14.98333814 14543,6950.181,96.107,574.356,569.737,0.0
55915.0,STARLINK-5859,PAYLOAD,2023-06-17 08:22:02,14.9832781,0.0002614,69.9996,296.6355,272.4916,87.5944,-3.8743e-05,-5.55e-06,0.0,0 STARLINK-5859,1 55915U 23037B   23168.34864551 -.00000555  00000-0 -38743-4 0  9992,2 55915  69.9996 296.6355 0002614 272.4916  87.5944 14.98327810 14583,6950.2,96.107,573.881,570.248,0.0
55915.0,STARLINK-5859,PAYLOAD,2023-06-17 14:46:35,14.98319463,0.0003013,70.0001,295.9639,274.5477,85.5338,-0.00010418,-1.335e-05,0.0,0 STARLINK-5859,1 55915U 23037B   23168.61569297 -.00001335  00000-0 -10418-3 0  9996,2 55915  70.0001 295.9639 0003013 274.5477  85.5338 14.98319463 14624,6950.225,96.108,574.185,569.996,0.0
55915.0,STARLINK-5859,PAYLOAD,2023-06-18 01:59:32,14.98324019,0.0003286,69.9994,294.7837,269.4054,90.6729,-0.00010327,-1.325e-05,0.0,0 STARLINK-5859,1 55915U 23037B   23169.08301197 -.00001325  00000-0 -10327-3 0  9999,2 55915  69.9994 294.7837 0003286 269.4054  90.6729 14.98324019 15046,6950.211,96.107,574.36,569.793,0.0
